[{"OBJECT_NAME":"STARLINK-5558","OBJECT_ID":"2023-021D","EPOCH":"2026-03-09T17:03:35.266176","MEAN_MOTION":14.98328248,"ECCENTRICITY":0.00032133,"INCLINATION":70.0002,"RA_OF_ASC_NODE":204.3096,"ARG_OF_PERICENTER":267.5398,"MEAN_ANOMALY":92.5393,"EPHEMERIS_TYPE":0,"CLASSIFICATION_TYPE":"U","NORAD_CAT_ID":55631,"ELEMENT_SET_NO":999,"REV_AT_EPOCH":16830,"BSTAR":0.00011941915,"MEAN_MOTION_DOT":1.332e-5,"MEAN_MOTION_DDOT":0},{"OBJECT_NAME":"HAWK-9A","OBJECT_ID":"2024-066E","EPOCH":"2026-03-09T10:20:39.002208","MEAN_MOTION":14.98777479,"ECCENTRICITY":0.00036271,"INCLINATION":45.6088,"RA_OF_ASC_NODE":72.7153,"ARG_OF_PERICENTER":244.6286,"MEAN_ANOMALY":115.4219,"EPHEMERIS_TYPE":0,"CLASSIFICATION_TYPE":"U","NORAD_CAT_ID":59446,"ELEMENT_SET_NO":999,"REV_AT_EPOCH":10486,"BSTAR":0.00023458946,"MEAN_MOTION_DOT":2.638e-5,"MEAN_MOTION_DDOT":0}]
